[{"OBJECT_NAME":"STARLINK-5710","OBJECT_ID":"2023-020AZ","EPOCH":"2025-12-09T16:42:14.299776","MEAN_MOTION":15.02537366,"ECCENTRICITY":0.00013771,"INCLINATION":43.0028,"RA_OF_ASC_NODE":120.5167,"ARG_OF_PERICENTER":274.754,"MEAN_ANOMALY":85.3145,"EPHEMERIS_TYPE":0,"CLASSIFICATION_TYPE":"U","NORAD_CAT_ID":55616,"ELEMENT_SET_NO":999,"REV_AT_EPOCH":15553,"BSTAR":3.1433939e-5,"MEAN_MOTION_DOT":2.21e-6,"MEAN_MOTION_DDOT":0},{"OBJECT_NAME":"STARLINK-5721","OBJECT_ID":"2023-020BA","EPOCH":"2025-12-09T10:27:19.473120","MEAN_MOTION":15.02536872,"ECCENTRICITY":0.00012325,"INCLINATION":43.0026,"RA_OF_ASC_NODE":122.0016,"ARG_OF_PERICENTER":272.9183,"MEAN_ANOMALY":87.1518,"EPHEMERIS_TYPE":0,"CLASSIFICATION_TYPE":"U","NORAD_CAT_ID":55617,"ELEMENT_SET_NO":999,"REV_AT_EPOCH":15549,"BSTAR":0.00013701577,"MEAN_MOTION_DOT":1.648e-5,"MEAN_MOTION_DDOT":0},{"OBJECT_NAME":"STARLINK-5717","OBJECT_ID":"2023-020BB","EPOCH":"2025-12-09T16:40:39.939744","MEAN_MOTION":15.02533649,"ECCENTRICITY":0.00014784,"INCLINATION":43.0029,"RA_OF_ASC_NODE":120.5085,"ARG_OF_PERICENTER":269.5516,"MEAN_ANOMALY":90.5157,"EPHEMERIS_TYPE":0,"CLASSIFICATION_TYPE":"U","NORAD_CAT_ID":55618,"ELEMENT_SET_NO":999,"REV_AT_EPOCH":15553,"BSTAR":0.00012623597,"MEAN_MOTION_DOT":1.502e-5,"MEAN_MOTION_DDOT":0},{"OBJECT_NAME":"STARLINK-5720","OBJECT_ID":"2023-020BC","EPOCH":"2025-12-09T10:12:55.881792","MEAN_MOTION":15.02537729,"ECCENTRICITY":0.00011209,"INCLINATION":43.0023,"RA_OF_ASC_NODE":121.927,"ARG_OF_PERICENTER":274.1985,"MEAN_ANOMALY":85.8729,"EPHEMERIS_TYPE":0,"CLASSIFICATION_TYPE":"U","NORAD_CAT_ID":55619,"ELEMENT_SET_NO":999,"REV_AT_EPOCH":15549,"BSTAR":4.016098e-5,"MEAN_MOTION_DOT":3.39e-6,"MEAN_MOTION_DDOT":0},{"OBJECT_NAME":"STARLINK-5718","OBJECT_ID":"2023-020BD","EPOCH":"2025-12-09T16:31:03.816768","MEAN_MOTION":15.02525179,"ECCENTRICITY":0.00013175,"INCLINATION":43.0031,"RA_OF_ASC_NODE":120.456,"ARG_OF_PERICENTER":268.2011,"MEAN_ANOMALY":91.868,"EPHEMERIS_TYPE":0,"CLASSIFICATION_TYPE":"U","NORAD_CAT_ID":55620,"ELEMENT_SET_NO":999,"REV_AT_EPOCH":15553,"BSTAR":-5.6782341e-5,"MEAN_MOTION_DOT":-9.7e-6,"MEAN_MOTION_DDOT":0},{"OBJECT_NAME":"STARLINK-5709","OBJECT_ID":"2023-020BE","EPOCH":"2025-12-09T16:47:01.087296","MEAN_MOTION":15.02575463,"ECCENTRICITY":0.00014568,"INCLINATION":43.0027,"RA_OF_ASC_NODE":120.5417,"ARG_OF_PERICENTER":259.5141,"MEAN_ANOMALY":100.5537,"EPHEMERIS_TYPE":0,"CLASSIFICATION_TYPE":"U","NORAD_CAT_ID":55621,"ELEMENT_SET_NO":999,"REV_AT_EPOCH":15553,"BSTAR":-0.00075586738,"MEAN_MOTION_DOT":-0.0001041,"MEAN_MOTION_DDOT":0},{"OBJECT_NAME":"STARLINK-5702","OBJECT_ID":"2023-020BF","EPOCH":"2025-12-09T18:03:35.383104","MEAN_MOTION":15.02534871,"ECCENTRICITY":0.0001336,"INCLINATION":43.0011,"RA_OF_ASC_NODE":120.0806,"ARG_OF_PERICENTER":272.4402,"MEAN_ANOMALY":87.6287,"EPHEMERIS_TYPE":0,"CLASSIFICATION_TYPE":"U","NORAD_CAT_ID":55622,"ELEMENT_SET_NO":999,"REV_AT_EPOCH":15554,"BSTAR":-2.79797e-6,"MEAN_MOTION_DOT":-2.41e-6,"MEAN_MOTION_DDOT":0},{"OBJECT_NAME":"STARLINK-5698","OBJECT_ID":"2023-020BG","EPOCH":"2025-12-09T19:32:54.960864","MEAN_MOTION":15.02533478,"ECCENTRICITY":0.00012087,"INCLINATION":43.0054,"RA_OF_ASC_NODE":119.684,"ARG_OF_PERICENTER":262.8953,"MEAN_ANOMALY":97.1752,"EPHEMERIS_TYPE":0,"CLASSIFICATION_TYPE":"U","NORAD_CAT_ID":55623,"ELEMENT_SET_NO":999,"REV_AT_EPOCH":15555,"BSTAR":6.324948e-6,"MEAN_MOTION_DOT":-1.18e-6,"MEAN_MOTION_DDOT":0},{"OBJECT_NAME":"STARLINK-5484","OBJECT_ID":"2023-021A","EPOCH":"2025-12-10T06:45:37.263456","MEAN_MOTION":14.98328764,"ECCENTRICITY":0.00031541,"INCLINATION":70.0001,"RA_OF_ASC_NODE":69.9721,"ARG_OF_PERICENTER":271.3891,"MEAN_ANOMALY":88.6907,"EPHEMERIS_TYPE":0,"CLASSIFICATION_TYPE":"U","NORAD_CAT_ID":55628,"ELEMENT_SET_NO":999,"REV_AT_EPOCH":15490,"BSTAR":0.00010934466,"MEAN_MOTION_DOT":1.212e-5,"MEAN_MOTION_DDOT":0},{"OBJECT_NAME":"STARLINK-5497","OBJECT_ID":"2023-021B","EPOCH":"2025-12-10T06:51:37.705248","MEAN_MOTION":14.98337315,"ECCENTRICITY":0.00028837,"INCLINATION":70.0007,"RA_OF_ASC_NODE":69.9878,"ARG_OF_PERICENTER":265.6643,"MEAN_ANOMALY":94.4187,"EPHEMERIS_TYPE":0,"CLASSIFICATION_TYPE":"U","NORAD_CAT_ID":55629,"ELEMENT_SET_NO":999,"REV_AT_EPOCH":15490,"BSTAR":4.9658544e-5,"MEAN_MOTION_DOT":5.0e-6,"MEAN_MOTION_DDOT":0},{"OBJECT_NAME":"STARLINK-5303","OBJECT_ID":"2023-021C","EPOCH":"2025-12-10T06:39:36.482976","MEAN_MOTION":14.98336155,"ECCENTRICITY":0.00030869,"INCLINATION":70.0002,"RA_OF_ASC_NODE":69.9579,"ARG_OF_PERICENTER":270.0715,"MEAN_ANOMALY":90.009,"EPHEMERIS_TYPE":0,"CLASSIFICATION_TYPE":"U","NORAD_CAT_ID":55630,"ELEMENT_SET_NO":999,"REV_AT_EPOCH":15490,"BSTAR":3.5002376e-5,"MEAN_MOTION_DOT":3.25e-6,"MEAN_MOTION_DDOT":0},{"OBJECT_NAME":"STARLINK-5558","OBJECT_ID":"2023-021D","EPOCH":"2025-12-10T07:39:41.223168","MEAN_MOTION":14.98327734,"ECCENTRICITY":0.00029815,"INCLINATION":70.001,"RA_OF_ASC_NODE":69.6997,"ARG_OF_PERICENTER":265.5327,"MEAN_ANOMALY":94.5492,"EPHEMERIS_TYPE":0,"CLASSIFICATION_TYPE":"U","NORAD_CAT_ID":55631,"ELEMENT_SET_NO":999,"REV_AT_EPOCH":15491,"BSTAR":-6.837459e-6,"MEAN_MOTION_DOT":-1.75e-6,"MEAN_MOTION_DDOT":0},{"OBJECT_NAME":"STARLINK-5546","OBJECT_ID":"2023-021E","EPOCH":"2025-12-10T06:27:35.396352","MEAN_MOTION":14.98331126,"ECCENTRICITY":0.00030776,"INCLINATION":69.9996,"RA_OF_ASC_NODE":69.9259,"ARG_OF_PERICENTER":272.8426,"MEAN_ANOMALY":87.2381,"EPHEMERIS_TYPE":0,"CLASSIFICATION_TYPE":"U","NORAD_CAT_ID":55632,"ELEMENT_SET_NO":999,"REV_AT_EPOCH":15490,"BSTAR":3.3307645e-5,"MEAN_MOTION_DOT":3.04e-6,"MEAN_MOTION_DDOT":0},{"OBJECT_NAME":"STARLINK-5498","OBJECT_ID":"2023-021F","EPOCH":"2025-12-10T06:21:34.789536","MEAN_MOTION":14.98331114,"ECCENTRICITY":0.00029909,"INCLINATION":70.0002,"RA_OF_ASC_NODE":69.9106,"ARG_OF_PERICENTER":269.0442,"MEAN_ANOMALY":91.0375,"EPHEMERIS_TYPE":0,"CLASSIFICATION_TYPE":"U","NORAD_CAT_ID":55633,"ELEMENT_SET_NO":999,"REV_AT_EPOCH":15490,"BSTAR":1.556517e-5,"MEAN_MOTION_DOT":9.3e-7,"MEAN_MOTION_DDOT":0},{"OBJECT_NAME":"STARLINK-5500","OBJECT_ID":"2023-021G","EPOCH":"2025-12-10T06:27:49.736160","MEAN_MOTION":14.98328958,"ECCENTRICITY":0.00033483,"INCLINATION":69.9997,"RA_OF_ASC_NODE":69.9274,"ARG_OF_PERICENTER":268.1622,"MEAN_ANOMALY":91.9153,"EPHEMERIS_TYPE":0,"CLASSIFICATION_TYPE":"U","NORAD_CAT_ID":55634,"ELEMENT_SET_NO":999,"REV_AT_EPOCH":15490,"BSTAR":6.3801071e-5,"MEAN_MOTION_DOT":6.68e-6,"MEAN_MOTION_DDOT":0},{"OBJECT_NAME":"STARLINK-5495","OBJECT_ID":"2023-021H","EPOCH":"2025-12-10T07:33:21.084768","MEAN_MOTION":14.98328997,"ECCENTRICITY":0.00029405,"INCLINATION":70.0007,"RA_OF_ASC_NODE":49.8186,"ARG_OF_PERICENTER":266.7373,"MEAN_ANOMALY":93.345,"EPHEMERIS_TYPE":0,"CLASSIFICATION_TYPE":"U","NORAD_CAT_ID":55635,"ELEMENT_SET_NO":999,"REV_AT_EPOCH":15540,"BSTAR":-7.380873e-6,"MEAN_MOTION_DOT":-1.81e-6,"MEAN_MOTION_DDOT":0}]
