STARLINK-5710           
1 55616U 23020AZ  25343.69599884  .00000221  00000+0  31434-4 0  9998
2 55616  43.0028 120.5167 0001377 274.7540  85.3145 15.02537366155534
STARLINK-5721           
1 55617U 23020BA  25343.43564205  .00001648  00000+0  13702-3 0  9991
2 55617  43.0026 122.0016 0001232 272.9183  87.1518 15.02536872155496
STARLINK-5717           
1 55618U 23020BB  25343.69490671  .00001502  00000+0  12624-3 0  9996
2 55618  43.0029 120.5085 0001478 269.5516  90.5157 15.02533649155534
STARLINK-5720           
1 55619U 23020BC  25343.42564678  .00000339  00000+0  40161-4 0  9992
2 55619  43.0023 121.9270 0001120 274.1985  85.8729 15.02537729155496
STARLINK-5718           
1 55620U 23020BD  25343.68823862 -.00000970  00000+0 -56782-4 0  9994
2 55620  43.0031 120.4560 0001317 268.2011  91.8680 15.02525179155539
STARLINK-5709           
1 55621U 23020BE  25343.69931814 -.00010410  00000+0 -75587-3 0  9996
2 55621  43.0027 120.5417 0001456 259.5141 100.5537 15.02575463155538
STARLINK-5702           
1 55622U 23020BF  25343.75249286 -.00000241  00000+0 -27980-5 0  9996
2 55622  43.0011 120.0806 0001336 272.4402  87.6287 15.02534871155546
STARLINK-5698           
1 55623U 23020BG  25343.81452501 -.00000118  00000+0  63249-5 0  9990
2 55623  43.0054 119.6840 0001208 262.8953  97.1752 15.02533478155554
STARLINK-5484           
1 55628U 23021A   25344.28168129  .00001212  00000+0  10934-3 0  9994
2 55628  70.0001  69.9721 0003154 271.3891  88.6907 14.98328764154903
STARLINK-5497           
1 55629U 23021B   25344.28585307  .00000500  00000+0  49659-4 0  9992
2 55629  70.0007  69.9878 0002883 265.6643  94.4187 14.98337315154909
STARLINK-5303           
1 55630U 23021C   25344.27750559  .00000325  00000+0  35002-4 0  9998
2 55630  70.0002  69.9579 0003086 270.0715  90.0090 14.98336155154906
STARLINK-5558           
1 55631U 23021D   25344.31922712 -.00000175  00000+0 -68375-5 0  9991
2 55631  70.0010  69.6997 0002981 265.5327  94.5492 14.98327734154917
STARLINK-5546           
1 55632U 23021E   25344.26915968  .00000304  00000+0  33308-4 0  9990
2 55632  69.9996  69.9259 0003077 272.8426  87.2381 14.98331126154905
STARLINK-5498           
1 55633U 23021F   25344.26498599  .00000093  00000+0  15565-4 0  9997
2 55633  70.0002  69.9106 0002990 269.0442  91.0375 14.98331114154900
STARLINK-5500           
1 55634U 23021G   25344.26932565  .00000668  00000+0  63801-4 0  9998
2 55634  69.9997  69.9274 0003348 268.1622  91.9153 14.98328958154900
STARLINK-5495           
1 55635U 23021H   25344.31482737 -.00000181  00000+0 -73809-5 0  9998
2 55635  70.0007  49.8186 0002940 266.7373  93.3450 14.98328997155404
